NORAD_CAT_ID,OBJECT_NAME,OBJECT_TYPE,EPOCH,MEAN_MOTION,ECCENTRICITY,INCLINATION,RA_OF_ASC_NODE,ARG_OF_PERICENTER,MEAN_ANOMALY,BSTAR,MEAN_MOTION_DOT,MEAN_MOTION_DDOT,TLE_LINE0,TLE_LINE1,TLE_LINE2,SEMIMAJOR_AXIS,PERIOD,APOGEE,PERIGEE,DECAYED
53784.0,STARLINK-4687,PAYLOAD,2023-09-29 22:51:50,15.08839538,0.0001463,53.2169,317.3221,96.149,263.9668,0.0001911,2.755e-05,0.0,0 STARLINK-4687,1 53784U 22111M   23272.95266317  .00002755  00000-0  19110-3 0  9993,2 53784  53.2169 317.3221 0001463  96.1490 263.9668 15.08839538 59078,6917.882,95.438,540.759,538.735,0.0
53784.0,STARLINK-4687,PAYLOAD,2023-09-30 22:42:37,15.08843227,0.0001502,53.2172,312.8682,94.3539,265.7625,1.6717e-05,-2.2e-07,0.0,0 STARLINK-4687,1 53784U 22111M   23273.94626268 -.00000022  00000-0  16717-4 0  9995,2 53784  53.2172 312.8682 0001502  94.3539 265.7625 15.08843227 58411,6917.871,95.437,540.775,538.696,0.0
53784.0,STARLINK-4687,PAYLOAD,2023-10-01 09:50:19,15.08840127,0.0001667,53.2178,310.7843,102.9859,257.132,1.6676e-05,-2.3e-07,0.0,0 STARLINK-4687,1 53784U 22111M   23274.40994876 -.00000023  00000-0  16676-4 0  9995,2 53784  53.2178 310.7843 0001667 102.9859 257.1320 15.08840127 58486,6917.88,95.438,540.898,538.592,0.0
53784.0,STARLINK-4687,PAYLOAD,2023-10-01 13:01:05,15.08845578,0.0001577,53.217,310.1865,103.7832,256.3336,5.1589e-05,5.33e-06,0.0,0 STARLINK-4687,1 53784U 22111M   23274.54242224  .00000533  00000-0  51589-4 0  9990,2 53784  53.2170 310.1865 0001577 103.7832 256.3336 15.08845578 59312,6917.863,95.437,540.819,538.637,0.0
53784.0,STARLINK-4687,PAYLOAD,2023-10-02 09:41:07,15.08832974,0.0001963,53.2171,306.3176,114.2333,245.8865,-6.337e-05,-1.296e-05,0.0,0 STARLINK-4687,1 53784U 22111M   23275.40355537 -.00001296  00000-0 -63370-4 0  9998,2 53784  53.2171 306.3176 0001963 114.2333 245.8865 15.08832974 58637,6917.902,95.438,541.125,538.409,0.0
53784.0,STARLINK-4687,PAYLOAD,2023-10-02 19:13:25,15.08846499,0.0001595,53.2176,304.5331,82.7599,277.3575,-0.00013427,-2.425e-05,0.0,0 STARLINK-4687,1 53784U 22111M   23275.80098931 -.00002425  00000-0 -13427-3 0  9996,2 53784  53.2176 304.5331 0001595  82.7599 277.3575 15.08846499 58690,6917.861,95.437,540.829,538.622,0.0
53784.0,STARLINK-4687,PAYLOAD,2023-10-03 09:31:53,15.08841203,0.0001802,53.2162,301.8581,106.6469,253.4721,0.00027292,4.058e-05,0.0,0 STARLINK-4687,1 53784U 22111M   23276.39715212  .00004058  00000-0  27292-3 0  9996,2 53784  53.2162 301.8581 0001802 106.6469 253.4721 15.08841203 59591,6917.877,95.437,540.988,538.495,0.0
53784.0,STARLINK-4687,PAYLOAD,2023-10-04 07:47:17,15.08845984,0.0001501,53.2155,297.6977,87.5561,272.5603,0.00028836,4.305e-05,0.0,0 STARLINK-4687,1 53784U 22111M   23277.32451272  .00004305  00000-0  28836-3 0  9993,2 53784  53.2155 297.6977 0001501  87.5561 272.5603 15.08845984 58927,6917.862,95.437,540.765,538.689,0.0
53784.0,STARLINK-4687,PAYLOAD,2023-10-04 18:54:59,15.08841985,0.000146,53.2147,295.6147,94.3252,265.7907,0.00014217,1.976e-05,0.0,0 STARLINK-4687,1 53784U 22111M   23277.78819329  .00001976  00000-0  14217-3 0  9993,2 53784  53.2147 295.6147 0001460  94.3252 265.7907 15.08841985 59808,6917.874,95.437,540.749,538.729,0.0
53784.0,STARLINK-4687,PAYLOAD,2023-10-05 01:16:32,15.08842266,0.000168,53.2149,294.4264,88.4698,271.6487,1.0563e-05,-1.2e-06,0.0,0 STARLINK-4687,1 53784U 22111M   23278.05315420 -.00000120  00000-0  10563-4 0  9999,2 53784  53.2149 294.4264 0001680  88.4698 271.6487 15.08842266 59036,6917.873,95.437,540.901,538.576,0.0
53784.0,STARLINK-4687,PAYLOAD,2023-10-05 07:38:04,15.08847057,0.0001602,53.2166,293.2358,92.6119,267.5057,5.5737e-05,5.99e-06,0.0,0 STARLINK-4687,1 53784U 22111M   23278.31811164  .00000599  00000-0  55737-4 0  9995,2 53784  53.2166 293.2358 0001602  92.6119 267.5057 15.08847057 59888,6917.859,95.437,540.832,538.616,0.0
53784.0,STARLINK-4687,PAYLOAD,2023-10-06 01:07:19,15.08863101,0.0001576,53.2169,289.9636,100.7479,259.3691,-0.00024543,-4.194e-05,0.0,0 STARLINK-4687,1 53784U 22111M   23279.04674927 -.00004194  00000-0 -24543-3 0  9997,2 53784  53.2169 289.9636 0001576 100.7479 259.3691 15.08863101 59186,6917.81,95.436,540.765,538.585,0.0
53784.0,STARLINK-4687,PAYLOAD,2023-10-06 07:28:51,15.08862382,0.0001579,53.2165,288.7751,91.6883,268.429,-0.00017281,-3.039e-05,0.0,0 STARLINK-4687,1 53784U 22111M   23279.31170507 -.00003039  00000-0 -17281-3 0  9990,2 53784  53.2165 288.7751 0001579  91.6883 268.4290 15.08862382 60039,6917.812,95.436,540.769,538.585,0.0
53784.0,STARLINK-4687,PAYLOAD,2023-10-07 00:58:06,15.08835215,0.0001577,53.2161,285.5046,90.3173,269.7999,7.3945e-05,8.89e-06,0.0,0 STARLINK-4687,1 53784U 22111M   23280.04035744  .00000889  00000-0  73945-4 0  9993,2 53784  53.2161 285.5046 0001577  90.3173 269.7999 15.08835215 59339,6917.895,95.438,540.851,538.669,0.0
53784.0,STARLINK-4687,PAYLOAD,2023-10-07 10:30:25,15.08841434,0.0001597,53.217,283.7176,94.902,265.2154,6.9819e-05,8.23e-06,0.0,0 STARLINK-4687,1 53784U 22111M   23280.43779468  .00000823  00000-0  69819-4 0  9997,2 53784  53.2170 283.7176 0001597  94.9020 265.2154 15.08841434 60208,6917.876,95.437,540.846,538.636,0.0
53784.0,STARLINK-4687,PAYLOAD,2023-10-08 07:10:26,15.08840245,0.0001492,53.2164,279.8543,93.5647,266.5516,5.268e-05,5.51e-06,0.0,0 STARLINK-4687,1 53784U 22111M   23281.29891794  .00000551  00000-0  52680-4 0  9995,2 53784  53.2164 279.8543 0001492  93.5647 266.5516 15.08840245 59527,6917.88,95.438,540.777,538.712,0.0
53784.0,STARLINK-4687,PAYLOAD,2023-10-08 16:42:45,15.08842274,0.0001489,53.2165,278.0709,93.3673,266.7489,2.9903e-05,1.88e-06,0.0,0 STARLINK-4687,1 53784U 22111M   23281.69635763  .00000188  00000-0  29903-4 0  9999,2 53784  53.2165 278.0709 0001489  93.3673 266.7489 15.08842274 60398,6917.873,95.437,540.769,538.708,0.0
53784.0,STARLINK-4687,PAYLOAD,2023-10-09 07:01:13,15.08844592,0.0001642,53.2174,275.3964,102.3683,257.7493,0.00016288,2.305e-05,0.0,0 STARLINK-4687,1 53784U 22111M   23282.29251643  .00002305  00000-0  16288-3 0  9991,2 53784  53.2174 275.3964 0001642 102.3683 257.7493 15.08844592 60484,6917.866,95.437,540.867,538.595,0.0
53784.0,STARLINK-4687,PAYLOAD,2023-10-09 16:33:32,15.08845279,0.0001267,53.2153,273.6098,92.5637,267.55,0.0001121,1.497e-05,0.0,0 STARLINK-4687,1 53784U 22111M   23282.68995423  .00001497  00000-0  11210-3 0  9996,2 53784  53.2153 273.6098 0001267  92.5637 267.5500 15.08845279 59739,6917.864,95.437,540.606,538.853,0.0
53784.0,STARLINK-4687,PAYLOAD,2023-10-10 08:27:23,15.08841918,0.0001729,53.2155,270.6359,82.0818,278.037,0.00010038,1.31e-05,0.0,0 STARLINK-4687,1 53784U 22111M   23283.35236003  .00001310  00000-0  10038-3 0  9994,2 53784  53.2155 270.6359 0001729  82.0818 278.0370 15.08841918 59835,6917.875,95.437,540.936,538.543,0.0
53784.0,STARLINK-4687,PAYLOAD,2023-10-10 11:38:09,15.08847842,0.0001868,53.2167,270.0399,85.5367,274.5839,0.0002024,2.935e-05,0.0,0 STARLINK-4687,1 53784U 22111M   23283.48483699  .00002935  00000-0  20240-3 0  9993,2 53784  53.2167 270.0399 0001868  85.5367 274.5839 15.08847842 60663,6917.856,95.437,541.014,538.429,0.0
53784.0,STARLINK-4687,PAYLOAD,2023-10-10 16:24:20,15.08827233,9.7e-05,53.2162,269.1516,108.4534,251.6563,-0.00012332,-2.249e-05,0.0,0 STARLINK-4687,1 53784U 22111M   23283.68356492 -.00002249  00000-0 -12332-3 0  9998,2 53784  53.2162 269.1516 0000970 108.4534 251.6563 15.08827233 59886,6917.919,95.438,540.455,539.113,0.0
53784.0,STARLINK-4687,PAYLOAD,2023-10-11 08:18:11,15.08845775,0.000152,53.215,266.1757,94.3609,265.7557,0.0002158,3.149e-05,0.0,0 STARLINK-4687,1 53784U 22111M   23284.34596068  .00003149  00000-0  21580-3 0  9990,2 53784  53.2150 266.1757 0001520  94.3609 265.7557 15.08845775 59986,6917.863,95.437,540.779,538.676,0.0
53784.0,STARLINK-4687,PAYLOAD,2023-10-11 16:15:07,15.08837086,0.0001569,53.2167,264.6884,90.4159,269.7012,7.6453e-05,9.29e-06,0.0,0 STARLINK-4687,1 53784U 22111M   23284.67716575  .00000929  00000-0  76453-4 0  9996,2 53784  53.2167 264.6884 0001569  90.4159 269.7012 15.08837086 60032,6917.889,95.438,540.84,538.669,0.0
53784.0,STARLINK-4687,PAYLOAD,2023-10-12 09:44:21,15.0885315,0.0001363,53.2164,261.4155,100.8876,259.2269,0.00057226,8.835e-05,0.0,0 STARLINK-4687,1 53784U 22111M   23285.40580231  .00008835  00000-0  57226-3 0  9996,2 53784  53.2164 261.4155 0001363 100.8876 259.2269 15.08853150 60149,6917.84,95.437,540.648,538.762,0.0
53784.0,STARLINK-4687,PAYLOAD,2023-10-12 16:05:54,15.08836414,0.0001578,53.2169,260.2266,103.1034,257.0134,0.00018032,2.583e-05,0.0,0 STARLINK-4687,1 53784U 22111M   23285.67076888  .00002583  00000-0  18032-3 0  9999,2 53784  53.2169 260.2266 0001578 103.1034 257.0134 15.08836414 60189,6917.891,95.438,540.848,538.665,0.0
53784.0,STARLINK-4687,PAYLOAD,2023-10-13 04:48:59,15.08854434,0.000152,53.2165,257.8482,93.3678,266.7488,0.00065203,0.00010108,0.0,0 STARLINK-4687,1 53784U 22111M   23286.20068542  .00010108  00000-0  65203-3 0  9991,2 53784  53.2165 257.8482 0001520  93.3678 266.7488 15.08854434 60268,6917.836,95.437,540.753,538.65,0.0
53784.0,STARLINK-4687,PAYLOAD,2023-10-13 07:59:45,15.0886064,0.0001538,53.2161,257.2527,94.0126,266.1042,0.00094044,0.00014719,0.0,0 STARLINK-4687,1 53784U 22111M   23286.33316365  .00014719  00000-0  94044-3 0  9991,2 53784  53.2161 257.2527 0001538  94.0126 266.1042 15.08860640 61091,6917.817,95.436,540.746,538.618,0.0
53784.0,STARLINK-4687,PAYLOAD,2023-10-14 04:39:45,15.08868732,0.0001402,53.2163,253.3874,100.9091,259.2059,0.00090184,0.00014105,0.0,0 STARLINK-4687,1 53784U 22111M   23287.19427750  .00014105  00000-0  90184-3 0  9997,2 53784  53.2163 253.3874 0001402 100.9091 259.2059 15.08868732 60419,6917.793,95.436,540.627,538.688,0.0
53784.0,STARLINK-4687,PAYLOAD,2023-10-14 22:09:01,15.08821433,0.0001661,53.2171,250.1162,93.4828,266.6354,0.00038624,5.861e-05,0.0,0 STARLINK-4687,1 53784U 22111M   23287.92293645  .00005861  00000-0  38624-3 0  9992,2 53784  53.2171 250.1162 0001661  93.4828 266.6354 15.08821433 61333,6917.937,95.439,540.951,538.653,0.0
